{
  "type": "FeatureCollection",
  "features": [
    {
      "type": "Feature",
      "properties": {
        "norad_id": 40889,
        "name": "GSAT0205 (GALILEO 9)",
        "group": "galileo",
        "lat": -53.85362063750909,
        "lon": 120.26668094795639,
        "alt_km": 23241.018064487085,
        "timestamp": "2025-12-03T17:47:50.980785+00:00",
        "meta_object_name": "GSAT0205 (GALILEO 9)",
        "meta_object_id": "2015-045A",
        "meta_epoch": "2025-12-02T03:27:57.508704",
        "meta_mean_motion": 1.70472886,
        "meta_eccentricity": 0.00058353,
        "meta_inclination": 55.0073,
        "meta_ra_of_asc_node": 227.0512,
        "meta_arg_of_pericenter": 38.3993,
        "meta_mean_anomaly": 321.7247,
        "meta_ephemeris_type": 0,
        "meta_classification_type": "U",
        "meta_norad_cat_id": 40889,
        "meta_element_set_no": 999,
        "meta_rev_at_epoch": 6365,
        "meta_bstar": 0,
        "meta_mean_motion_dot": 3.5e-07,
        "meta_mean_motion_ddot": 0,
        "tle_line1": "1 40889U 15045A   25336.14441561  .00000035  00000+0  00000+0 0  9995",
        "tle_line2": "2 40889  55.0073 227.0512 0005835  38.3993 321.7247  1.70472886 63655"
      },
      "geometry": {
        "type": "Point",
        "coordinates": [
          120.26668094795639,
          -53.85362063750909
        ]
      }
    },
    {
      "type": "Feature",
      "properties": {
        "norad_id": 40890,
        "name": "GSAT0206 (GALILEO 10)",
        "group": "galileo",
        "lat": 42.23646433428243,
        "lon": 7.578664693457062,
        "alt_km": 23218.009019857865,
        "timestamp": "2025-12-03T17:47:50.980796+00:00",
        "meta_object_name": "GSAT0206 (GALILEO 10)",
        "meta_object_id": "2015-045B",
        "meta_epoch": "2025-12-01T18:40:58.746144",
        "meta_mean_motion": 1.70473031,
        "meta_eccentricity": 0.0003438,
        "meta_inclination": 55.0064,
        "meta_ra_of_asc_node": 227.0564,
        "meta_arg_of_pericenter": 30.2471,
        "meta_mean_anomaly": 329.8532,
        "meta_ephemeris_type": 0,
        "meta_classification_type": "U",
        "meta_norad_cat_id": 40890,
        "meta_element_set_no": 999,
        "meta_rev_at_epoch": 6367,
        "meta_bstar": 0,
        "meta_mean_motion_dot": 3.4e-07,
        "meta_mean_motion_ddot": 0,
        "tle_line1": "1 40890U 15045B   25335.77845771  .00000034  00000+0  00000+0 0  9995",
        "tle_line2": "2 40890  55.0064 227.0564 0003438  30.2471 329.8532  1.70473031 63674"
      },
      "geometry": {
        "type": "Point",
        "coordinates": [
          7.578664693457062,
          42.23646433428243
        ]
      }
    },
    {
      "type": "Feature",
      "properties": {
        "norad_id": 41174,
        "name": "GSAT0209 (GALILEO 12)",
        "group": "galileo",
        "lat": 17.707817112867954,
        "lon": 119.18544483286716,
        "alt_km": 23213.729317883895,
        "timestamp": "2025-12-03T17:47:50.980807+00:00",
        "meta_object_name": "GSAT0209 (GALILEO 12)",
        "meta_object_id": "2015-079A",
        "meta_epoch": "2025-12-01T22:43:10.411392",
        "meta_mean_motion": 1.70474306,
        "meta_eccentricity": 0.0002352,
        "meta_inclination": 55.7062,
        "meta_ra_of_asc_node": 106.6773,
        "meta_arg_of_pericenter": 357.4206,
        "meta_mean_anomaly": 2.5431,
        "meta_ephemeris_type": 0,
        "meta_classification_type": "U",
        "meta_norad_cat_id": 41174,
        "meta_element_set_no": 999,
        "meta_rev_at_epoch": 6141,
        "meta_bstar": 0,
        "meta_mean_motion_dot": 3.5e-07,
        "meta_mean_motion_ddot": 0,
        "tle_line1": "1 41174U 15079A   25335.94664828  .00000035  00000+0  00000+0 0  9990",
        "tle_line2": "2 41174  55.7062 106.6773 0002352 357.4206   2.5431  1.70474306 61412"
      },
      "geometry": {
        "type": "Point",
        "coordinates": [
          119.18544483286716,
          17.707817112867954
        ]
      }
    },
    {
      "type": "Feature",
      "properties": {
        "norad_id": 41175,
        "name": "GSAT0208 (GALILEO 11)",
        "group": "galileo",
        "lat": -49.25236108901225,
        "lon": -21.056251905603606,
        "alt_km": 23230.76347921178,
        "timestamp": "2025-12-03T17:47:50.980819+00:00",
        "meta_object_name": "GSAT0208 (GALILEO 11)",
        "meta_object_id": "2015-079B",
        "meta_epoch": "2025-12-03T08:09:32.137920",
        "meta_mean_motion": 1.70474152,
        "meta_eccentricity": 0.0001907,
        "meta_inclination": 55.7055,
        "meta_ra_of_asc_node": 106.6362,
        "meta_arg_of_pericenter": 9.6551,
        "meta_mean_anomaly": 350.3047,
        "meta_ephemeris_type": 0,
        "meta_classification_type": "U",
        "meta_norad_cat_id": 41175,
        "meta_element_set_no": 999,
        "meta_rev_at_epoch": 6185,
        "meta_bstar": 0,
        "meta_mean_motion_dot": 2.2e-07,
        "meta_mean_motion_ddot": 0,
        "tle_line1": "1 41175U 15079B   25337.33995530  .00000022  00000+0  00000+0 0  9999",
        "tle_line2": "2 41175  55.7055 106.6362 0001907   9.6551 350.3047  1.70474152 61857"
      },
      "geometry": {
        "type": "Point",
        "coordinates": [
          -21.056251905603606,
          -49.25236108901225
        ]
      }
    },
    {
      "type": "Feature",
      "properties": {
        "norad_id": 41549,
        "name": "GSAT0211 (GALILEO 14)",
        "group": "galileo",
        "lat": 7.857359631881974,
        "lon": 41.56567566920065,
        "alt_km": 23232.39154971233,
        "timestamp": "2025-12-03T17:47:50.980830+00:00",
        "meta_object_name": "GSAT0211 (GALILEO 14)",
        "meta_object_id": "2016-030A",
        "meta_epoch": "2025-12-01T16:54:04.942368",
        "meta_mean_motion": 1.70472896,
        "meta_eccentricity": 0.00038995,
        "meta_inclination": 55.1563,
        "meta_ra_of_asc_node": 227.1275,
        "meta_arg_of_pericenter": 10.5053,
        "meta_mean_anomaly": 349.5828,
        "meta_ephemeris_type": 0,
        "meta_classification_type": "U",
        "meta_norad_cat_id": 41549,
        "meta_element_set_no": 999,
        "meta_rev_at_epoch": 5930,
        "meta_bstar": 0,
        "meta_mean_motion_dot": 3.3e-07,
        "meta_mean_motion_ddot": 0,
        "tle_line1": "1 41549U 16030A   25335.70422387  .00000033  00000+0  00000+0 0  9998",
        "tle_line2": "2 41549  55.1563 227.1275 0003899  10.5053 349.5828  1.70472896 59309"
      },
      "geometry": {
        "type": "Point",
        "coordinates": [
          41.56567566920065,
          7.857359631881974
        ]
      }
    },
    {
      "type": "Feature",
      "properties": {
        "norad_id": 41550,
        "name": "GSAT0210 (GALILEO 13)",
        "group": "galileo",
        "lat": 10.114691206420881,
        "lon": -125.79898899781762,
        "alt_km": 23223.551089959023,
        "timestamp": "2025-12-03T17:47:50.980841+00:00",
        "meta_object_name": "GSAT0210 (GALILEO 13)",
        "meta_object_id": "2016-030B",
        "meta_epoch": "2025-12-03T03:14:10.364352",
        "meta_mean_motion": 1.70473449,
        "meta_eccentricity": 0.0001223,
        "meta_inclination": 55.1551,
        "meta_ra_of_asc_node": 227.0861,
        "meta_arg_of_pericenter": 241.4534,
        "meta_mean_anomaly": 118.6225,
        "meta_ephemeris_type": 0,
        "meta_classification_type": "U",
        "meta_norad_cat_id": 41550,
        "meta_element_set_no": 999,
        "meta_rev_at_epoch": 5932,
        "meta_bstar": 0,
        "meta_mean_motion_dot": 3.9e-07,
        "meta_mean_motion_ddot": 0,
        "tle_line1": "1 41550U 16030B   25337.13484218  .00000039  00000+0  00000+0 0  9996",
        "tle_line2": "2 41550  55.1551 227.0861 0001223 241.4534 118.6225  1.70473449 59329"
      },
      "geometry": {
        "type": "Point",
        "coordinates": [
          -125.79898899781762,
          10.114691206420881
        ]
      }
    },
    {
      "type": "Feature",
      "properties": {
        "norad_id": 41859,
        "name": "GSAT0207 (GALILEO 15)",
        "group": "galileo",
        "lat": -17.622546996656904,
        "lon": -60.8510040776389,
        "alt_km": 23228.07150271784,
        "timestamp": "2025-12-03T17:47:50.980853+00:00",
        "meta_object_name": "GSAT0207 (GALILEO 15)",
        "meta_object_id": "2016-069A",
        "meta_epoch": "2025-12-02T19:50:13.202016",
        "meta_mean_motion": 1.70474209,
        "meta_eccentricity": 0.0002114,
        "meta_inclination": 55.3769,
        "meta_ra_of_asc_node": 106.5249,
        "meta_arg_of_pericenter": 324.8964,
        "meta_mean_anomaly": 35.0488,
        "meta_ephemeris_type": 0,
        "meta_classification_type": "U",
        "meta_norad_cat_id": 41859,
        "meta_element_set_no": 999,
        "meta_rev_at_epoch": 5605,
        "meta_bstar": 0,
        "meta_mean_motion_dot": 2.6e-07,
        "meta_mean_motion_ddot": 0,
        "tle_line1": "1 41859U 16069A   25336.82654169  .00000026  00000+0  00000+0 0  9995",
        "tle_line2": "2 41859  55.3769 106.5249 0002114 324.8964  35.0488  1.70474209 56053"
      },
      "geometry": {
        "type": "Point",
        "coordinates": [
          -60.8510040776389,
          -17.622546996656904
        ]
      }
    }
  ]
}